$$SOE
2460728.500000000, A.D. 2025-Feb-22 00:00:00.0000, -2.081233307550004E+08, -3.191172765069124E+08, 1.060180390329312E+07,
2460735.500000000, A.D. 2025-Mar-01 00:00:00.0000, -1.981202820230351E+08, -3.237773293348557E+08, 9.427282371834010E+06,
2460742.500000000, A.D. 2025-Mar-08 00:00:00.0000, -1.879415590093584E+08, -3.281503225409724E+08, 8.244402806198999E+06,
2460749.500000000, A.D. 2025-Mar-15 00:00:00.0000, -1.775942596041265E+08, -3.322290156509598E+08, 7.054129464584887E+06,
2460756.500000000, A.D. 2025-Mar-22 00:00:00.0000, -1.670857964391226E+08, -3.360062539567804E+08, 5.857455889146224E+06,
2460763.500000000, A.D. 2025-Mar-29 00:00:00.0000, -1.564239046377604E+08, -3.394749829401320E+08, 4.655405124730691E+06,
2460770.500000000, A.D. 2025-Apr-05 00:00:00.0000, -1.456166475890999E+08, -3.426282626876473E+08, 3.449029797620043E+06,
2460777.500000000, A.D. 2025-Apr-12 00:00:00.0000, -1.346724226087275E+08, -3.454592822217783E+08, 2.239412231855989E+06,
2460784.500000000, A.D. 2025-Apr-19 00:00:00.0000, -1.235999666049430E+08, -3.479613746528637E+08, 1.027664540171757E+06,
2460791.500000000, A.D. 2025-Apr-26 00:00:00.0000, -1.124083614043191E+08, -3.501280333752765E+08, -1.850713606549948E+05,
2460798.500000000, A.D. 2025-May-03 00:00:00.0000, -1.011070385428558E+08, -3.519529293032027E+08, -1.397623828068823E+06,
2460805.500000000, A.D. 2025-May-10 00:00:00.0000, -8.970578340803085E+07, -3.534299291460552E+08, -2.608791677046344E+06,
2460812.500000000, A.D. 2025-May-17 00:00:00.0000, -7.821473860195881E+07, -3.545531147660194E+08, -3.817344484899774E+06,
2460819.500000000, A.D. 2025-May-24 00:00:00.0000, -6.664440625035965E+07, -3.553168036673336E+08, -5.022023048073739E+06,
2460826.500000000, A.D. 2025-May-31 00:00:00.0000, -5.500564873125944E+07, -3.557155702978769E+08, -6.221540014430538E+06,
2460833.500000000, A.D. 2025-Jun-07 00:00:00.0000, -4.330968811328360E+07, -3.557442669454324E+08, -7.414580566722721E+06,
2460840.500000000, A.D. 2025-Jun-14 00:00:00.0000, -3.156810655590166E+07, -3.553980448721203E+08, -8.599803005891562E+06,
2460847.500000000, A.D. 2025-Jun-21 00:00:00.0000, -1.979284633898578E+07, -3.546723789208463E+08, -9.775839624085322E+06,
2460854.500000000, A.D. 2025-Jun-28 00:00:00.0000, -7.996206272712150E+06, -3.535630937791612E+08, -1.094129802069858E+07,
2460861.500000000, A.D. 2025-Jul-05 00:00:00.0000, 3.809164120499111E+06, -3.520663896808956E+08, -1.209476255618779E+07,
2460868.500000000, A.D. 2025-Jul-12 00:00:00.0000, 1.561027158961801E+07, -3.501788682739140E+08, -1.323479591003376E+07,
2460875.500000000, A.D. 2025-Jul-19 00:00:00.0000, 2.739378762327160E+07, -3.478975591391743E+08, -1.435994081681262E+07,
2460882.500000000, A.D. 2025-Jul-26 00:00:00.0000, 3.914605873960753E+07, -3.452199469134190E+08, -1.546872201347676E+07,
2460889.500000000, A.D. 2025-Aug-02 00:00:00.0000, 5.085311878613743E+07, -3.421439988722957E+08, -1.655964841072378E+07,
2460896.500000000, A.D. 2025-Aug-09 00:00:00.0000, 6.250070339168800E+07, -3.386681928487640E+08, -1.763121549955207E+07,
2460903.500000000, A.D. 2025-Aug-16 00:00:00.0000, 7.407426676012671E+07, -3.347915453933122E+08, -1.868190801165986E+07,
2460910.500000000, A.D. 2025-Aug-23 00:00:00.0000, 8.555900120160423E+07, -3.305136399858599E+08, -1.971020286385530E+07,
2460917.500000000, A.D. 2025-Aug-30 00:00:00.0000, 9.693985982094389E+07, -3.258346543929491E+08, -2.071457236100498E+07,
2460924.500000000, A.D. 2025-Sep-06 00:00:00.0000, 1.082015810212674E+08, -3.207553859576473E+08, -2.169348744627768E+07,
2460931.500000000, A.D. 2025-Sep-13 00:00:00.0000, 1.193287132119523E+08, -3.152772770721216E+08, -2.264542104658124E+07,
2460938.500000000, A.D. 2025-Sep-20 00:00:00.0000, 1.303056430366544E+08, -3.094024422275444E+08, -2.356885194359322E+07,
2460945.500000000, A.D. 2025-Sep-27 00:00:00.0000, 1.411166282013116E+08, -3.031336932689315E+08, -2.446226900633690E+07,
2460952.500000000, A.D. 2025-Oct-04 00:00:00.0000, 1.517458328803698E+08, -2.964745620431114E+08, -2.532417554639322E+07,
2460959.500000000, A.D. 2025-Oct-11 00:00:00.0000, 1.621773652937588E+08, -2.894293210982848E+08, -2.615309382546821E+07,
2460966.500000000, A.D. 2025-Oct-18 00:00:00.0000, 1.723953176739028E+08, -2.820030024165914E+08, -2.694756974737917E+07,
2460973.500000000, A.D. 2025-Oct-25 00:00:00.0000, 1.823838086646937E+08, -2.742014138712568E+08, -2.770617772654353E+07,
2460980.500000000, A.D. 2025-Nov-01 00:00:00.0000, 1.921270280581167E+08, -2.660311530942184E+08, -2.842752571193288E+07,
2460987.500000000, A.D. 2025-Nov-08 00:00:00.0000, 2.016092837316590E+08, -2.574996184884486E+08, -2.911026034517477E+07,
2460994.500000000, A.D. 2025-Nov-15 00:00:00.0000, 2.108150507270030E+08, -2.486150171526589E+08, -2.975307224056312E+07,
2461001.500000000, A.D. 2025-Nov-22 00:00:00.0000, 2.197290226308526E+08, -2.393863692233653E+08, -3.035470137213273E+07,
2461008.500000000, A.D. 2025-Nov-29 00:00:00.0000, 2.283361648250508E+08, -2.298235072479291E+08, -3.091394242417553E+07,
2461015.500000000, A.D. 2025-Dec-06 00:00:00.0000, 2.366217670078969E+08, -2.199370704969930E+08, -3.142964986750883E+07,
2461022.500000000, A.D. 2025-Dec-13 00:00:00.0000, 2.445714950615762E+08, -2.097384973826556E+08, -3.190074303376251E+07,
2461029.500000000, A.D. 2025-Dec-20 00:00:00.0000, 2.521714453707170E+08, -1.992400147877341E+08, -3.232621137933928E+07,
2461036.500000000, A.D. 2025-Dec-27 00:00:00.0000, 2.594082001053356E+08, -1.884546215870954E+08, -3.270511958243139E+07,
2461043.500000000, A.D. 2026-Jan-03 00:00:00.0000, 2.662688815720789E+08, -1.773960668956405E+08, -3.303661234236915E+07,
2461050.500000000, A.D. 2026-Jan-10 00:00:00.0000, 2.727412052877520E+08, -1.660788236894798E+08, -3.331991889941078E+07,
2461057.500000000, A.D. 2026-Jan-17 00:00:00.0000, 2.788135315402938E+08, -1.545180579122081E+08, -3.355435725696835E+07,
2461064.500000000, A.D. 2026-Jan-24 00:00:00.0000, 2.844749150430003E+08, -1.427295931206959E+08, -3.373933806619499E+07,
2461071.500000000, A.D. 2026-Jan-31 00:00:00.0000, 2.897151522339867E+08, -1.307298708144656E+08, -3.387436813236433E+07,
2461078.500000000, A.D. 2026-Feb-07 00:00:00.0000, 2.945248258145643E+08, -1.185359067019231E+08, -3.395905351218813E+07,
2461085.500000000, A.D. 2026-Feb-14 00:00:00.0000, 2.988953463194875E+08, -1.061652431668573E+08, -3.399310218732858E+07,
2461092.500000000, A.D. 2026-Feb-21 00:00:00.0000, 3.028189906714186E+08, -9.363589764992575E+07, -3.397632626650964E+07,
2461099.500000000, A.D. 2026-Feb-28 00:00:00.0000, 3.062889362488479E+08, -8.096630613280715E+07, -3.390864349332346E+07,
2461106.500000000, A.D. 2026-Mar-07 00:00:00.0000, 3.092992880743051E+08, -6.817526407367176E+07, -3.379007800978760E+07,
2461113.500000000, A.D. 2026-Mar-14 00:00:00.0000, 3.118451016068061E+08, -5.528186757242766E+07, -3.362076080720495E+07,
2461120.500000000, A.D. 2026-Mar-21 00:00:00.0000, 3.139224026799587E+08, -4.230545235016792E+07, -3.340092978323652E+07,
2461127.500000000, A.D. 2026-Mar-28 00:00:00.0000, 3.155282023911775E+08, -2.926553002716646E+07, -3.313092913513295E+07,
2461134.500000000, A.D. 2026-Apr-04 00:00:00.0000, 3.166605062098985E+08, -1.618172319697751E+07, -3.281120811699503E+07,
2461141.500000000, A.D. 2026-Apr-11 00:00:00.0000, 3.173183175111123E+08, -3.073700196686046E+06, -3.244231922623801E+07,
2461148.500000000, A.D. 2026-Apr-18 00:00:00.0000, 3.175016356904306E+08, 1.003888987939946E+07, -3.202491585164822E+07,
2461155.500000000, A.D. 2026-Apr-25 00:00:00.0000, 3.172114489685904E+08, 2.313648140365167E+07, -3.155974940973150E+07,
2461162.500000000, A.D. 2026-May-02 00:00:00.0000, 3.164497220418165E+08, 3.619965512808492E+07, -3.104766600435157E+07,
2461169.500000000, A.D. 2026-May-09 00:00:00.0000, 3.152193788887879E+08, 4.920919922289667E+07, -3.048960266181294E+07,
2461176.500000000, A.D. 2026-May-16 00:00:00.0000, 3.135242813506597E+08, 6.214616810901437E+07, -2.988658320461720E+07,
2461183.500000000, A.D. 2026-May-23 00:00:00.0000, 3.113692038162228E+08, 7.499193967584059E+07, -2.923971372766928E+07,
2461190.500000000, A.D. 2026-May-30 00:00:00.0000, 3.087598022635163E+08, 8.772827082413101E+07, -2.855017750582761E+07,
2461197.500000000, A.D. 2026-Jun-06 00:00:00.0000, 3.057025777207859E+08, 1.003373477226170E+08, -2.781922962138071E+07,
2461204.500000000, A.D. 2026-Jun-13 00:00:00.0000, 3.022048382108778E+08, 1.128018306817250E+08, -2.704819168230457E+07,
2461211.500000000, A.D. 2026-Jun-20 00:00:00.0000, 2.982746590903746E+08, 1.251048963333647E+08, -2.623844639624640E+07,
2461218.500000000, A.D. 2026-Jun-27 00:00:00.0000, 2.939208405174716E+08, 1.372302765965782E+08, -2.539143192251869E+07,
2461225.500000000, A.D. 2026-Jul-04 00:00:00.0000, 2.891528624903238E+08, 1.491622935264086E+08, -2.450863611510511E+07,
2461232.500000000, A.D. 2026-Jul-11 00:00:00.0000, 2.839808381512056E+08, 1.608858898381667E+08, -2.359159073869200E+07,
2461239.500000000, A.D. 2026-Jul-18 00:00:00.0000, 2.784154658834867E+08, 1.723866551072428E+08, -2.264186570962030E+07,
2461246.500000000, A.D. 2026-Jul-25 00:00:00.0000, 2.724679806472761E+08, 1.836508476692861E+08, -2.166106340628678E+07,
2461253.500000000, A.D. 2026-Aug-01 00:00:00.0000, 2.661501050053965E+08, 1.946654122392031E+08, -2.065081309647330E+07,
2461260.500000000, A.D. 2026-Aug-08 00:00:00.0000, 2.594740004368072E+08, 2.054179933203316E+08, -1.961276553982969E+07,
2461267.500000000, A.D. 2026-Aug-15 00:00:00.0000, 2.524522197103438E+08, 2.158969449951029E+08, -1.854858779880947E+07,
2461274.500000000, A.D. 2026-Aug-22 00:00:00.0000, 2.450976598811046E+08, 2.260913384840005E+08, -1.745995811590655E+07,
2461281.500000000, A.D. 2026-Aug-29 00:00:00.0000, 2.374235139057502E+08, 2.359909662977690E+08, -1.634856078151333E+07,
2461288.500000000, A.D. 2026-Sep-05 00:00:00.0000, 2.294432232777541E+08, 2.455863403431827E+08, -1.521608144233797E+07,
$$EOE